NORAD_CAT_ID,OBJECT_NAME,OBJECT_TYPE,EPOCH,MEAN_MOTION,ECCENTRICITY,INCLINATION,RA_OF_ASC_NODE,ARG_OF_PERICENTER,MEAN_ANOMALY,BSTAR,MEAN_MOTION_DOT,MEAN_MOTION_DDOT,TLE_LINE0,TLE_LINE1,TLE_LINE2,SEMIMAJOR_AXIS,PERIOD,APOGEE,PERIGEE,DECAYED
52127.0,STARLINK-3715,PAYLOAD,2023-07-27 21:47:47,15.08831014,0.000116,53.2174,39.7903,92.4909,267.6216,-1.2016e-05,-4.79e-06,0.0,0 STARLINK-3715,1 52127U 22029AR  23208.90818368 -.00000479  00000-0 -12016-4 0  9996,2 52127  53.2174  39.7903 0001160  92.4909 267.6216 15.08831014 76636,6917.908,95.438,540.575,538.97,0.0
52127.0,STARLINK-3715,PAYLOAD,2023-07-28 05:44:42,15.0883375,0.000119,53.2178,38.3033,93.683,266.4299,5.5414e-05,5.94e-06,0.0,0 STARLINK-3715,1 52127U 22029AR  23209.23938183  .00000594  00000-0  55414-4 0  9996,2 52127  53.2178  38.3033 0001190  93.6830 266.4299 15.08833750 76680,6917.899,95.438,540.588,538.941,0.0
52127.0,STARLINK-3715,PAYLOAD,2023-07-28 12:06:15,15.08838621,8.25e-05,53.2181,37.1164,80.8853,279.2233,1.5505e-05,-4.1e-07,0.0,0 STARLINK-3715,1 52127U 22029AR  23209.50434036 -.00000041  00000-0  15505-4 0  9999,2 52127  53.2181  37.1164 0000825  80.8853 279.2233 15.08838621 76720,6917.885,95.438,540.32,539.179,0.0
52127.0,STARLINK-3715,PAYLOAD,2023-07-28 15:17:00,15.0884246,8.6e-05,53.2179,36.5215,84.745,275.3641,6.1401e-05,6.9e-06,0.0,0 STARLINK-3715,1 52127U 22029AR  23209.63681658  .00000690  00000-0  61401-4 0  9992,2 52127  53.2179  36.5215 0000860  84.7450 275.3641 15.08842460 76740,6917.873,95.437,540.333,539.143,0.0
52127.0,STARLINK-3715,PAYLOAD,2023-07-29 18:18:35,15.08823587,8.12e-05,53.2176,31.4664,84.6777,275.4307,2.5649e-05,1.2e-06,0.0,0 STARLINK-3715,1 52127U 22029AR  23210.76291326  .00000120  00000-0  25649-4 0  9999,2 52127  53.2176  31.4664 0000812  84.6777 275.4307 15.08823587 76915,6917.931,95.439,540.357,539.234,0.0
52127.0,STARLINK-3715,PAYLOAD,2023-07-29 21:29:21,15.08831365,9.31e-05,53.2176,30.8718,78.8504,281.2593,0.00010189,1.334e-05,0.0,0 STARLINK-3715,1 52127U 22029AR  23210.89538822  .00001334  00000-0  10189-3 0  9998,2 52127  53.2176  30.8718 0000931  78.8504 281.2593 15.08831365 76930,6917.907,95.438,540.416,539.128,0.0
52127.0,STARLINK-3715,PAYLOAD,2023-07-30 18:09:21,15.08857999,9.43e-05,53.2168,27.0061,78.9536,281.1562,0.00028841,4.307e-05,0.0,0 STARLINK-3715,1 52127U 22029AR  23211.75649339  .00004307  00000-0  28841-3 0  9997,2 52127  53.2168  27.0061 0000943  78.9536 281.1562 15.08857999 77060,6917.825,95.436,540.343,539.038,0.0
52127.0,STARLINK-3715,PAYLOAD,2023-07-31 05:17:03,15.08848636,0.0001349,53.2161,24.9262,73.2673,286.8467,0.00025751,3.814e-05,0.0,0 STARLINK-3715,1 52127U 22029AR  23212.22017903  .00003814  00000-0  25751-3 0  9995,2 52127  53.2161  24.9262 0001349  73.2673 286.8467 15.08848636 77135,6917.854,95.437,540.652,538.786,0.0
52127.0,STARLINK-3715,PAYLOAD,2023-08-01 17:50:55,15.0884946,0.0001003,53.217,18.0858,85.3501,274.7606,0.00013738,1.9e-05,0.0,0 STARLINK-3715,1 52127U 22029AR  23213.74369416  .00001900  00000-0  13738-3 0  9998,2 52127  53.2170  18.0858 0001003  85.3501 274.7606 15.08849460 77363,6917.851,95.437,540.41,539.023,0.0
52127.0,STARLINK-3715,PAYLOAD,2023-08-02 09:44:46,15.08836317,0.0001004,53.2172,15.1101,83.3899,276.7207,1.1806e-05,-1e-06,0.0,0 STARLINK-3715,1 52127U 22029AR  23214.40609915 -.00000100  00000-0  11806-4 0  9990,2 52127  53.2172  15.1101 0001004  83.3899 276.7207 15.08836317 77460,6917.892,95.438,540.451,539.062,0.0
52127.0,STARLINK-3715,PAYLOAD,2023-08-02 17:41:42,15.08847926,9.26e-05,53.2169,13.6244,84.5437,275.5661,0.00024178,3.563e-05,0.0,0 STARLINK-3715,1 52127U 22029AR  23214.73729444  .00003563  00000-0  24178-3 0  9996,2 52127  53.2169  13.6244 0000926  84.5437 275.5661 15.08847926 77515,6917.856,95.437,540.362,539.081,0.0
52127.0,STARLINK-3715,PAYLOAD,2023-08-03 09:35:33,15.08843046,9.72e-05,53.2169,10.6516,88.9746,271.1358,0.00011337,1.517e-05,0.0,0 STARLINK-3715,1 52127U 22029AR  23215.39969551  .00001517  00000-0  11337-3 0  9994,2 52127  53.2169  10.6516 0000972  88.9746 271.1358 15.08843046 77611,6917.871,95.437,540.408,539.064,0.0
52127.0,STARLINK-3715,PAYLOAD,2023-08-04 09:26:21,15.08830334,8.96e-05,53.2177,6.191,66.611,293.4977,-7.1249e-05,-1.421e-05,0.0,0 STARLINK-3715,1 52127U 22029AR  23216.39330551 -.00001421  00000-0 -71249-4 0  9992,2 52127  53.2177   6.1910 0000896  66.6110 293.4977 15.08830334 77767,6917.91,95.438,540.395,539.155,0.0
52127.0,STARLINK-3715,PAYLOAD,2023-08-04 17:23:17,15.08839125,8.62e-05,53.218,4.7048,71.2691,288.8395,7.2349e-05,8.64e-06,0.0,0 STARLINK-3715,1 52127U 22029AR  23216.72450468  .00000864  00000-0  72349-4 0  9999,2 52127  53.2180   4.7048 0000862  71.2691 288.8395 15.08839125 77811,6917.883,95.438,540.344,539.152,0.0
52127.0,STARLINK-3715,PAYLOAD,2023-08-05 17:14:03,15.08864979,9.88e-05,53.217,0.245,82.9715,277.1389,0.00054489,8.401e-05,0.0,0 STARLINK-3715,1 52127U 22029AR  23217.71809323  .00008401  00000-0  54489-3 0  9996,2 52127  53.2170   0.2450 0000988  82.9715 277.1389 15.08864979 77968,6917.804,95.436,540.353,538.986,0.0
52127.0,STARLINK-3715,PAYLOAD,2023-08-06 09:07:55,15.08831351,9.84e-05,53.217,357.2706,99.3141,260.7962,-8.8094e-05,-1.689e-05,0.0,0 STARLINK-3715,1 52127U 22029AR  23218.38050745 -.00001689  00000-0 -88094-4 0  9999,2 52127  53.2170 357.2706 0000984  99.3141 260.7962 15.08831351 78063,6917.907,95.438,540.453,539.091,0.0
52127.0,STARLINK-3715,PAYLOAD,2023-08-06 15:29:28,15.08818964,9.77e-05,53.2164,356.0812,95.9742,264.1361,-0.0003522,-5.885e-05,0.0,0 STARLINK-3715,1 52127U 22029AR  23218.64547250 -.00005885  00000-0 -35220-3 0  9994,2 52127  53.2164 356.0812 0000977  95.9742 264.1361 15.08818964 78103,6917.945,95.439,540.486,539.134,0.0
52127.0,STARLINK-3715,PAYLOAD,2023-08-07 08:58:43,15.08830155,8.1e-05,53.2171,352.8101,92.4171,267.6913,0.00018064,2.588e-05,0.0,0 STARLINK-3715,1 52127U 22029AR  23219.37411961  .00002588  00000-0  18064-3 0  9996,2 52127  53.2171 352.8101 0000810  92.4171 267.6913 15.08830155 78219,6917.91,95.438,540.336,539.215,0.0
52127.0,STARLINK-3715,PAYLOAD,2023-08-08 02:27:58,15.08850323,8.89e-05,53.217,349.5388,97.7922,262.3171,0.00079685,0.0001242,0.0,0 STARLINK-3715,1 52127U 22029AR  23220.10275979  .00012420  00000-0  79685-3 0  9998,2 52127  53.2170 349.5388 0000889  97.7922 262.3171 15.08850323 78325,6917.849,95.437,540.329,539.099,0.0
52127.0,STARLINK-3715,PAYLOAD,2023-08-08 18:21:48,15.08880687,8.67e-05,53.2168,346.5651,95.178,264.9311,0.0011688,0.00018383,0.0,0 STARLINK-3715,1 52127U 22029AR  23220.76514686  .00018383  00000-0  11688-2 0  9993,2 52127  53.2168 346.5651 0000867  95.1780 264.9311 15.08880687 78423,6917.756,95.435,540.221,539.021,0.0
52127.0,STARLINK-3715,PAYLOAD,2023-08-09 08:40:17,15.08837352,9.67e-05,53.218,343.8899,5.28,354.8202,-0.00030746,-5.177e-05,0.0,0 STARLINK-3715,1 52127U 22029AR  23221.36131132 -.00005177  00000-0 -30746-3 0  9997,2 52127  53.2180 343.8899 0000967   5.2800 354.8202 15.08837352 78516,6917.888,95.438,540.422,539.085,0.0
52127.0,STARLINK-3715,PAYLOAD,2023-08-09 15:01:49,15.08843971,7.76e-05,53.217,342.7005,70.8668,289.2408,-3.8314e-05,-8.97e-06,0.0,0 STARLINK-3715,1 52127U 22029AR  23221.62627124 -.00000897  00000-0 -38314-4 0  9991,2 52127  53.2170 342.7005 0000776  70.8668 289.2408 15.08843971 78557,6917.868,95.437,540.27,539.196,0.0
52127.0,STARLINK-3715,PAYLOAD,2023-08-11 00:24:55,15.08844701,8.17e-05,53.2168,336.4564,64.3244,295.7833,0.00025998,3.853e-05,0.0,0 STARLINK-3715,1 52127U 22029AR  23223.01731027  .00003853  00000-0  25998-3 0  9990,2 52127  53.2168 336.4564 0000817  64.3244 295.7833 15.08844701 78767,6917.866,95.437,540.296,539.166,0.0
52127.0,STARLINK-3715,PAYLOAD,2023-08-12 06:37:15,15.08842126,7.57e-05,53.216,330.8076,91.8526,268.2553,1.8674e-05,1e-07,0.0,0 STARLINK-3715,1 52127U 22029AR  23224.27586854  .00000010  00000-0  18674-4 0  9991,2 52127  53.2160 330.8076 0000757  91.8526 268.2553 15.08842126 78950,6917.874,95.437,540.263,539.215,0.0
52127.0,STARLINK-3715,PAYLOAD,2023-08-13 09:38:48,15.08837768,0.0001084,53.2162,325.7511,80.1675,279.9439,4.7618e-05,4.7e-06,0.0,0 STARLINK-3715,1 52127U 22029AR  23225.40195326  .00000470  00000-0  47618-4 0  9997,2 52127  53.2162 325.7511 0001084  80.1675 279.9439 15.08837768 79127,6917.887,95.438,540.502,539.002,0.0
52127.0,STARLINK-3715,PAYLOAD,2023-08-14 11:04:58,15.08840572,9.82e-05,53.2174,320.9932,83.6413,276.4691,7.7373e-05,9.44e-06,0.0,0 STARLINK-3715,1 52127U 22029AR  23226.46179327  .00000944  00000-0  77373-4 0  9994,2 52127  53.2174 320.9932 0000982  83.6413 276.4691 15.08840572 79284,6917.879,95.438,540.423,539.064,0.0
52127.0,STARLINK-3715,PAYLOAD,2023-08-15 09:20:20,15.08897429,0.000112,53.2172,316.8296,65.7861,294.3248,-0.00077559,-0.00012629,0.0,0 STARLINK-3715,1 52127U 22029AR  23227.38913008 -.00012629  00000-0 -77559-3 0  9998,2 52127  53.2172 316.8296 0001120  65.7861 294.3248 15.08897429 79428,6917.705,95.434,540.345,538.795,0.0
52127.0,STARLINK-3715,PAYLOAD,2023-08-15 15:41:54,15.08850852,8.2e-05,53.2172,315.6401,94.5018,265.6068,0.00011604,1.56e-05,0.0,0 STARLINK-3715,1 52127U 22029AR  23227.65410370  .00001560  00000-0  11604-3 0  9991,2 52127  53.2172 315.6401 0000820  94.5018 265.6068 15.08850852 79467,6917.847,95.437,540.279,539.145,0.0
52127.0,STARLINK-3715,PAYLOAD,2023-08-16 01:14:13,15.08841202,9.58e-05,53.2163,313.8547,93.729,266.3812,7.6963e-05,9.37e-06,0.0,0 STARLINK-3715,1 52127U 22029AR  23228.05155028  .00000937  00000-0  76963-4 0  9999,2 52127  53.2163 313.8547 0000958  93.7290 266.3812 15.08841202 79524,6917.877,95.437,540.404,539.079,0.0
52127.0,STARLINK-3715,PAYLOAD,2023-08-17 10:37:19,15.08841162,9.92e-05,53.2173,307.613,68.0685,292.0412,7.0362e-05,8.32e-06,0.0,0 STARLINK-3715,1 52127U 22029AR  23229.44259139  .00000832  00000-0  70362-4 0  9992,2 52127  53.2173 307.6130 0000992  68.0685 292.0412 15.08841162 79735,6917.877,95.437,540.428,539.056,0.0
